{"epoch":1784762836,"count":18316,"objects":[{"id":"28366","name":"APRIZESAT 2","type":"PAYLOAD","l1":"1 28366U 04025A   26203.35314676  .00000163  00000-0  63349-4 0  9993","l2":"2 28366  98.1050   7.3485 0106382 143.3905 217.4614 14.38049992156693"},{"id":"28369","name":"SAUDICOMSAT 1","type":"PAYLOAD","l1":"1 28369U 04025D   26203.48894531  .00000229  00000-0  63776-4 0  9990","l2":"2 28369  98.5780 214.5747 0030845 275.6674  84.1005 14.55497034169268"},{"id":"28370","name":"SAUDICOMSAT 2","type":"PAYLOAD","l1":"1 28370U 04025E   26203.45638062  .00000190  00000-0  60639-4 0  9996","l2":"2 28370  98.6645 216.7000 0056092 151.8071 208.6179 14.49997109165212"},{"id":"28372","name":"APRIZESAT 1","type":"PAYLOAD","l1":"1 28372U 04025G   26203.51322929  .00000186  00000-0  57821-4 0  9991","l2":"2 28372  98.6311 215.2011 0045502  48.9994 311.5122 14.51794959167039"},{"id":"28493","name":"NANOSAT(1)","type":"PAYLOAD","l1":"1 28493U 04049B   26203.32089292  .00000788  00000-0  11093-3 0  9991","l2":"2 28493  98.2319 340.8507 0004302 162.5350 197.6010 14.80220471160648"},{"id":"31119","name":"SAUDICOMSAT 7","type":"PAYLOAD","l1":"1 31119U 07012C   26203.53334580  .00000461  00000-0  91356-4 0  9998","l2":"2 31119  98.3805 178.3935 0057030  85.8209 274.9509 14.66142407 27610"},{"id":"31121","name":"SAUDICOMSAT 6","type":"PAYLOAD","l1":"1 31121U 07012E   26203.52819267  .00000278  00000-0  63098-4 0  9998","l2":"2 31121  98.4124 171.7084 0070867 215.9665 143.6755 14.62588573 25353"},{"id":"31124","name":"SAUDICOMSAT 5","type":"PAYLOAD","l1":"1 31124U 07012H   26203.52538138  .00000521  00000-0  98182-4 0  9999","l2":"2 31124  98.3516 179.1257 0047755  16.0859 344.1849 14.68199022 28784"},{"id":"31125","name":"SAUDICOMSAT 3","type":"PAYLOAD","l1":"1 31125U 07012J   26203.35652040  .00000578  00000-0  10255-3 0  9996","l2":"2 31125  98.3171 179.4992 0037869 302.0085  57.7443 14.70757177 29990"},{"id":"31127","name":"SAUDICOMSAT 4","type":"PAYLOAD","l1":"1 31127U 07012L   26203.40895689  .00000355  00000-0  74740-4 0  9995","l2":"2 31127  98.4010 176.7029 0064035 147.3523 213.1663 14.64540037 26445"},{"id":"35684","name":"APRIZESAT 4","type":"PAYLOAD","l1":"1 35684U 09041D   26203.45597415  .00000609  00000-0  79169-4 0  9994","l2":"2 35684  98.1398 279.4776 0042703 205.5417 154.3687 14.83921264916592"},{"id":"35686","name":"APRIZESAT 3","type":"PAYLOAD","l1":"1 35686U 09041F   26203.34088258  .00000307  00000-0  32161-4 0  9990","l2":"2 35686  98.2106 358.2597 0060677 311.9174  47.6880 14.96319418921637"},{"id":"43186","name":"S-NET D","type":"PAYLOAD","l1":"1 43186U 18014G   26203.29341551  .00004436  00000-0  22811-3 0  9993","l2":"2 43186  97.5322 107.8657 0006228 253.5912 106.4637 15.16961563464083"},{"id":"43187","name":"S-NET B","type":"PAYLOAD","l1":"1 43187U 18014H   26203.30556226  .00004505  00000-0  23177-3 0  9996","l2":"2 43187  97.5325 107.8655 0006909 247.8907 112.1593 15.16930470464089"},{"id":"43188","name":"S-NET A","type":"PAYLOAD","l1":"1 43188U 18014J   26203.29210040  .00004449  00000-0  22871-3 0  9993","l2":"2 43188  97.5337 108.0676 0006790 248.8700 111.1807 15.16969735464082"},{"id":"43189","name":"S-NET C","type":"PAYLOAD","l1":"1 43189U 18014K   26203.44156010  .00004162  00000-0  21439-3 0  9998","l2":"2 43189  97.5355 108.2963 0008268 239.9256 120.1158 15.16922824462651"},{"id":"46495","name":"SALSAT","type":"PAYLOAD","l1":"1 46495U 20068K   26203.46128258  .00007239  00000-0  24997-3 0  9998","l2":"2 46495  97.8868 208.6876 0009978 167.8214 192.3268 15.30243913320754"},{"id":"60240","name":"OOV-CUBE","type":"PAYLOAD","l1":"1 60240U 24128F   26203.25313467  .00001541  00000-0  12811-3 0  9990","l2":"2 60240  61.9942 103.2884 0040191 141.6330 218.7632 15.02894414111385"},{"id":"68408","name":"LPNTSAT-001","type":"PAYLOAD","l1":"1 68408U 26065A   26203.46032598  .00001904  00000-0  94857-4 0  9996","l2":"2 68408  97.3971  83.2185 0014820 238.3524 121.6265 15.18693157 17617"},{"id":"69972","name":"CHUANG XIN 26 (CX-26)","type":"PAYLOAD","l1":"1 69972U 26158A   26203.48998492 -.00000176  00000-0 -69006-5 0  9993","l2":"2 69972  49.9826 249.6322 0004966 324.2847  35.7734 14.25124408  1748"}]}